{
  "type": "FeatureCollection",
  "features": [
    {
      "type": "Feature",
      "properties": {
        "norad_id": 43719,
        "name": "HYSIS",
        "group": "resource",
        "lat": -3.715715549993072,
        "lon": -130.93557028819654,
        "alt_km": 637.6433970290382,
        "timestamp": "2025-12-12T14:39:17.629444+00:00",
        "meta_object_name": "HYSIS",
        "meta_object_id": "2018-096A",
        "meta_epoch": "2025-12-12T07:19:50.757312",
        "meta_mean_motion": 14.78645012,
        "meta_eccentricity": 0.00013436,
        "meta_inclination": 98.0093,
        "meta_ra_of_asc_node": 49.2847,
        "meta_arg_of_pericenter": 58.454,
        "meta_mean_anomaly": 301.6802,
        "meta_ephemeris_type": 0,
        "meta_classification_type": "U",
        "meta_norad_cat_id": 43719,
        "meta_element_set_no": 999,
        "meta_rev_at_epoch": 37980,
        "meta_bstar": 0.00034670038,
        "meta_mean_motion_dot": 2.488e-05,
        "meta_mean_motion_ddot": 0,
        "tle_line1": "1 43719U 18096A   25346.30544858  .00002488  00000+0  34670-3 0  9999",
        "tle_line2": "2 43719  98.0093  49.2847 0001343  58.4540 301.6802 14.78645012379801"
      },
      "geometry": {
        "type": "Point",
        "coordinates": [
          -130.93557028819654,
          -3.715715549993072
        ]
      }
    },
    {
      "type": "Feature",
      "properties": {
        "norad_id": 43783,
        "name": "KAZSTSAT",
        "group": "resource",
        "lat": 49.60776848041988,
        "lon": 12.947330861545614,
        "alt_km": 563.6345134853918,
        "timestamp": "2025-12-12T14:39:17.629453+00:00",
        "meta_object_name": "KAZSTSAT",
        "meta_object_id": "2018-099AB",
        "meta_epoch": "2025-12-12T01:37:06.339936",
        "meta_mean_motion": 14.99350068,
        "meta_eccentricity": 0.00059257,
        "meta_inclination": 97.4559,
        "meta_ra_of_asc_node": 21.2815,
        "meta_arg_of_pericenter": 333.101,
        "meta_mean_anomaly": 26.9906,
        "meta_ephemeris_type": 0,
        "meta_classification_type": "U",
        "meta_norad_cat_id": 43783,
        "meta_element_set_no": 999,
        "meta_rev_at_epoch": 38326,
        "meta_bstar": 0.00018865051,
        "meta_mean_motion_dot": 2.251e-05,
        "meta_mean_motion_ddot": 0,
        "tle_line1": "1 43783U 18099AB  25346.06743449  .00002251  00000+0  18865-3 0  9999",
        "tle_line2": "2 43783  97.4559  21.2815 0005925 333.1010  26.9906 14.99350068383266"
      },
      "geometry": {
        "type": "Point",
        "coordinates": [
          12.947330861545614,
          49.60776848041988
        ]
      }
    },
    {
      "type": "Feature",
      "properties": {
        "norad_id": 43831,
        "name": "SAUDISAT 5A",
        "group": "resource",
        "lat": 82.62358813964853,
        "lon": -48.89221513706344,
        "alt_km": 473.522838563149,
        "timestamp": "2025-12-12T14:39:17.629462+00:00",
        "meta_object_name": "SAUDISAT 5A",
        "meta_object_id": "2018-102A",
        "meta_epoch": "2025-12-12T07:57:46.813248",
        "meta_mean_motion": 15.25649776,
        "meta_eccentricity": 0.0011751,
        "meta_inclination": 97.3353,
        "meta_ra_of_asc_node": 46.5305,
        "meta_arg_of_pericenter": 77.5705,
        "meta_mean_anomaly": 282.6847,
        "meta_ephemeris_type": 0,
        "meta_classification_type": "U",
        "meta_norad_cat_id": 43831,
        "meta_element_set_no": 999,
        "meta_rev_at_epoch": 38716,
        "meta_bstar": 0.00038967361,
        "meta_mean_motion_dot": 9.866e-05,
        "meta_mean_motion_ddot": 0,
        "tle_line1": "1 43831U 18102A   25346.33179182  .00009866  00000+0  38967-3 0  9999",
        "tle_line2": "2 43831  97.3353  46.5305 0011751  77.5705 282.6847 15.25649776387164"
      },
      "geometry": {
        "type": "Point",
        "coordinates": [
          -48.89221513706344,
          82.62358813964853
        ]
      }
    },
    {
      "type": "Feature",
      "properties": {
        "norad_id": 43833,
        "name": "SAUDISAT 5B",
        "group": "resource",
        "lat": 36.65153659861118,
        "lon": -124.95023535508156,
        "alt_km": 481.4908599544433,
        "timestamp": "2025-12-12T14:39:17.629472+00:00",
        "meta_object_name": "SAUDISAT 5B",
        "meta_object_id": "2018-102C",
        "meta_epoch": "2025-12-12T07:44:12.959808",
        "meta_mean_motion": 15.26002585,
        "meta_eccentricity": 0.00124723,
        "meta_inclination": 97.3448,
        "meta_ra_of_asc_node": 49.2591,
        "meta_arg_of_pericenter": 79.9125,
        "meta_mean_anomaly": 280.352,
        "meta_ephemeris_type": 0,
        "meta_classification_type": "U",
        "meta_norad_cat_id": 43833,
        "meta_element_set_no": 999,
        "meta_rev_at_epoch": 38727,
        "meta_bstar": 0.00038647746,
        "meta_mean_motion_dot": 9.892e-05,
        "meta_mean_motion_ddot": 0,
        "tle_line1": "1 43833U 18102C   25346.32237222  .00009892  00000+0  38648-3 0  9995",
        "tle_line2": "2 43833  97.3448  49.2591 0012472  79.9125 280.3520 15.26002585387278"
      },
      "geometry": {
        "type": "Point",
        "coordinates": [
          -124.95023535508156,
          36.65153659861118
        ]
      }
    },
    {
      "type": "Feature",
      "properties": {
        "norad_id": 44622,
        "name": "GAOFEN-10R",
        "group": "resource",
        "lat": 71.98229460107677,
        "lon": 139.83098389105706,
        "alt_km": 611.1452789207478,
        "timestamp": "2025-12-12T14:39:17.629481+00:00",
        "meta_object_name": "GAOFEN-10R",
        "meta_object_id": "2019-066A",
        "meta_epoch": "2025-12-12T07:42:01.160064",
        "meta_mean_motion": 14.82790522,
        "meta_eccentricity": 0.00079106,
        "meta_inclination": 98.0276,
        "meta_ra_of_asc_node": 293.8255,
        "meta_arg_of_pericenter": 43.258,
        "meta_mean_anomaly": 316.9253,
        "meta_ephemeris_type": 0,
        "meta_classification_type": "U",
        "meta_norad_cat_id": 44622,
        "meta_element_set_no": 999,
        "meta_rev_at_epoch": 33468,
        "meta_bstar": 0.00034391389,
        "meta_mean_motion_dot": 2.728e-05,
        "meta_mean_motion_ddot": 0,
        "tle_line1": "1 44622U 19066A   25346.32084676  .00002728  00000+0  34391-3 0  9997",
        "tle_line2": "2 44622  98.0276 293.8255 0007910  43.2580 316.9253 14.82790522334688"
      },
      "geometry": {
        "type": "Point",
        "coordinates": [
          139.83098389105706,
          71.98229460107677
        ]
      }
    },
    {
      "type": "Feature",
      "properties": {
        "norad_id": 44804,
        "name": "CARTOSAT-3",
        "group": "resource",
        "lat": -71.16188238779995,
        "lon": -156.3860620441466,
        "alt_km": 525.2915266120926,
        "timestamp": "2025-12-12T14:39:17.629490+00:00",
        "meta_object_name": "CARTOSAT-3",
        "meta_object_id": "2019-081A",
        "meta_epoch": "2025-12-12T07:13:25.199040",
        "meta_mean_motion": 15.19149437,
        "meta_eccentricity": 0.00141979,
        "meta_inclination": 97.4586,
        "meta_ra_of_asc_node": 45.8898,
        "meta_arg_of_pericenter": 85.0204,
        "meta_mean_anomaly": 275.2651,
        "meta_ephemeris_type": 0,
        "meta_classification_type": "U",
        "meta_norad_cat_id": 44804,
        "meta_element_set_no": 999,
        "meta_rev_at_epoch": 33509,
        "meta_bstar": 0.0004516344,
        "meta_mean_motion_dot": 9.452e-05,
        "meta_mean_motion_ddot": 0,
        "tle_line1": "1 44804U 19081A   25346.30098610  .00009452  00000+0  45163-3 0  9997",
        "tle_line2": "2 44804  97.4586  45.8898 0014197  85.0204 275.2651 15.19149437335096"
      },
      "geometry": {
        "type": "Point",
        "coordinates": [
          -156.3860620441466,
          -71.16188238779995
        ]
      }
    },
    {
      "type": "Feature",
      "properties": {
        "norad_id": 44819,
        "name": "GAOFEN-12 01",
        "group": "resource",
        "lat": 13.852529071855262,
        "lon": -9.04526409933286,
        "alt_km": 628.9938928045003,
        "timestamp": "2025-12-12T14:39:17.629499+00:00",
        "meta_object_name": "GAOFEN-12 01",
        "meta_object_id": "2019-082A",
        "meta_epoch": "2025-12-12T06:28:56.798976",
        "meta_mean_motion": 14.8065649,
        "meta_eccentricity": 0.00013038,
        "meta_inclination": 97.8126,
        "meta_ra_of_asc_node": 352.5634,
        "meta_arg_of_pericenter": 236.1927,
        "meta_mean_anomaly": 123.9161,
        "meta_ephemeris_type": 0,
        "meta_classification_type": "U",
        "meta_norad_cat_id": 44819,
        "meta_element_set_no": 999,
        "meta_rev_at_epoch": 32643,
        "meta_bstar": 0.00011410597,
        "meta_mean_motion_dot": 8.26e-06,
        "meta_mean_motion_ddot": 0,
        "tle_line1": "1 44819U 19082A   25346.27010184  .00000826  00000+0  11411-3 0  9995",
        "tle_line2": "2 44819  97.8126 352.5634 0001303 236.1927 123.9161 14.80656490326430"
      },
      "geometry": {
        "type": "Point",
        "coordinates": [
          -9.04526409933286,
          13.852529071855262
        ]
      }
    }
  ]
}